STARLINK-36623          
1 67644U 26020AD  26030.34439120 -.00002705  85507-5  00000+0 0  9998
2 67644  43.0100  17.8878 0006900 318.5000  14.7500 16.02007763    18
STARLINK-36619          
1 67645U 26020AE  26030.34439120 -.00002705  85507-5  00000+0 0  9999
2 67645  43.0100  17.8878 0006900 318.5000  14.7500 16.02007763    19
ALSAT-3B                
1 67646U 26021A   26036.13772381  .00009748  00000+0  41136-3 0  9994
2 67646  97.4727 110.6131 0011398 246.8327 113.1710 15.23437536   760
CZ-2C R/B               
1 67647U 26021B   26036.66492085  .00020633  00000+0  62548-3 0  9999
2 67647  97.6568 111.4877 0154217 122.4218 239.2043 15.23186183   823
